{
    "links": {
        "self": "http://www.neowsapp.com/rest/v1/neo/3837782?api_key=iIulBulltgU6a56xZRHN4H3l9WmuAYTsLGpBGhQ2"
    },
    "id": "3837782",
    "neo_reference_id": "3837782",
    "name": "(2019 AO8)",
    "designation": "2019 AO8",
    "nasa_jpl_url": "http://ssd.jpl.nasa.gov/sbdb.cgi?sstr=3837782",
    "absolute_magnitude_h": 25.6,
    "estimated_diameter": {
        "kilometers": {
            "estimated_diameter_min": 0.0201629919,
            "estimated_diameter_max": 0.0450858206
        },
        "meters": {
            "estimated_diameter_min": 20.1629919443,
            "estimated_diameter_max": 45.0858206172
        },
        "miles": {
            "estimated_diameter_min": 0.0125286985,
            "estimated_diameter_max": 0.0280150214
        },
        "feet": {
            "estimated_diameter_min": 66.1515504905,
            "estimated_diameter_max": 147.9193637137
        }
    },
    "is_potentially_hazardous_asteroid": false,
    "close_approach_data": [
        {
            "close_approach_date": "1926-12-10",
            "close_approach_date_full": "1926-Dec-10 13:48",
            "epoch_date_close_approach": -1358849520000,
            "relative_velocity": {
                "kilometers_per_second": "5.0860530645",
                "kilometers_per_hour": "18309.7910323362",
                "miles_per_hour": "11376.9921000647"
            },
            "miss_distance": {
                "astronomical": "0.8315445323",
                "lunar": "323.4708230647",
                "kilometers": "124397290.842226201",
                "miles": "77296892.2248395338"
            },
            "orbiting_body": "Juptr"
        },
        {
            "close_approach_date": "1938-10-30",
            "close_approach_date_full": "1938-Oct-30 14:34",
            "epoch_date_close_approach": -983697960000,
            "relative_velocity": {
                "kilometers_per_second": "5.3247161687",
                "kilometers_per_hour": "19168.9782073127",
                "miles_per_hour": "11910.8575977605"
            },
            "miss_distance": {
                "astronomical": "0.8690875499",
                "lunar": "338.0750569111",
                "kilometers": "130013646.308558713",
                "miles": "80786733.6855197194"
            },
            "orbiting_body": "Juptr"
        },
        {
            "close_approach_date": "1948-12-13",
            "close_approach_date_full": "1948-Dec-13 12:34",
            "epoch_date_close_approach": -664284360000,
            "relative_velocity": {
                "kilometers_per_second": "24.9785245277",
                "kilometers_per_hour": "89922.6882996397",
                "miles_per_hour": "55874.4615159622"
            },
            "miss_distance": {
                "astronomical": "0.4164479788",
                "lunar": "161.9982637532",
                "kilometers": "62299730.594285156",
                "miles": "38711257.5264249128"
            },
            "orbiting_body": "Earth"
        },
        {
            "close_approach_date": "1950-09-30",
            "close_approach_date_full": "1950-Sep-30 05:22",
            "epoch_date_close_approach": -607631880000,
            "relative_velocity": {
                "kilometers_per_second": "6.8915025803",
                "kilometers_per_hour": "24809.4092890987",
                "miles_per_hour": "15415.6021218847"
            },
            "miss_distance": {
                "astronomical": "1.2306785007",
                "lunar": "478.7339367723",
                "kilometers": "184106882.359513509",
                "miles": "114398711.9594400642"
            },
            "orbiting_body": "Juptr"
        },
        {
            "close_approach_date": "2019-01-20",
            "close_approach_date_full": "2019-Jan-20 17:39",
            "epoch_date_close_approach": 1548005940000,
            "relative_velocity": {
                "kilometers_per_second": "11.2585963011",
                "kilometers_per_hour": "40530.9466840446",
                "miles_per_hour": "25184.3540659832"
            },
            "miss_distance": {
                "astronomical": "0.0265171204",
                "lunar": "10.3151598356",
                "kilometers": "3966904.730373548",
                "miles": "2464920.2995810424"
            },
            "orbiting_body": "Earth"
        }
    ],
    "orbital_data": {
        "orbit_id": "7",
        "orbit_determination_date": "2019-01-26 09:41:36",
        "first_observation_date": "2019-01-09",
        "last_observation_date": "2019-01-21",
        "data_arc_in_days": 12,
        "observations_used": 45,
        "orbit_uncertainty": "7",
        "minimum_orbit_intersection": ".000559725",
        "jupiter_tisserand_invariant": "3.116",
        "epoch_osculation": "2459000.5",
        "eccentricity": ".6347527304097389",
        "semi_major_axis": "2.55995143977758",
        "inclination": "1.227221929750049",
        "ascending_node_longitude": "302.9499228903363",
        "orbital_period": "1496.049687051575",
        "perihelion_distance": ".9350152736624188",
        "perihelion_argument": "211.0665413553906",
        "aphelion_distance": "4.184887605892741",
        "perihelion_time": "2458529.207090929416",
        "mean_anomaly": "113.4089654467213",
        "mean_motion": ".2406337189973219",
        "equinox": "J2000",
        "orbit_class": {
            "orbit_class_type": "APO",
            "orbit_class_description": "Near-Earth asteroid orbits which cross the Earth’s orbit similar to that of 1862 Apollo",
            "orbit_class_range": "a (semi-major axis) > 1.0 AU; q (perihelion) < 1.017 AU"
        }
    },
    "is_sentry_object": false
}